0 IRIDIUM 166
1 43570U 18061B   24013.58368559  .00000109  00000-0  32013-4 0  9997
2 43570  86.3942  66.8533 0001967  82.7268 277.4151 14.34217925286461
0 IRIDIUM 158
1 43571U 18061C   24013.55197194  .00000437  00000-0  14887-3 0  9992
2 43571  86.3943  66.8755 0001884  97.6255 262.5155 14.34219731286420
0 IRIDIUM 165
1 43572U 18061D   24013.57734162  .00000370  00000-0  12509-3 0  9992
2 43572  86.3945  66.8944 0001881  96.6981 263.4429 14.34218354286452
0 IRIDIUM 155
1 43573U 18061E   24013.53928481  .00000441  00000-0  15050-3 0  9991
2 43573  86.3940  66.8232 0002301  87.5969 272.5491 14.34220612286417
0 IRIDIUM 154
1 43574U 18061F   24013.59002750  .00000361  00000-0  12178-3 0  9999
2 43574  86.3944  66.8918 0002311  95.6615 264.4844 14.34218050286473
0 IRIDIUM 163
1 43575U 18061G   24013.57099780  .00000462  00000-0  15789-3 0  9990
2 43575  86.3943  66.8430 0002297  95.9948 264.1510 14.34219771286442
0 IRIDIUM 156
1 43576U 18061H   24013.61539846  .00000319  00000-0  10699-3 0  9994
2 43576  86.3941  66.8302 0001910  91.7822 268.3593 14.34216955286443
0 IRIDIUM 164
1 43577U 18061J   24013.59637005  .00000216  00000-0  70014-4 0  9992
2 43577  86.3945  66.8649 0001930  97.3796 262.7619 14.34218042286486
